<?xml version="1.0" ?>
<gpx xmlns="http://www.topografix.com/GPX/1/1">
 <trk>
  <name>8/2/2026: Al Antico Vinaio</name>
  <trkseg>
   <trkpt lat="40.731063" lon="-74.001411"/>
   <trkpt lat="40.73113" lon="-74.001365"/>
   <trkpt lat="40.73134" lon="-74.001216"/>
   <trkpt lat="40.731645" lon="-74.000997"/>
   <trkpt lat="40.731706" lon="-74.000954"/>
   <trkpt lat="40.731768" lon="-74.000909"/>
   <trkpt lat="40.731855" lon="-74.000846"/>
   <trkpt lat="40.732265" lon="-74.000547"/>
   <trkpt lat="40.732315" lon="-74.000511"/>
   <trkpt lat="40.732373" lon="-74.000469"/>
   <trkpt lat="40.732876" lon="-74.000105"/>
   <trkpt lat="40.732929" lon="-74.000066"/>
   <trkpt lat="40.732989" lon="-74.000022"/>
   <trkpt lat="40.733169" lon="-73.999889"/>
   <trkpt lat="40.733237" lon="-73.999838"/>
   <trkpt lat="40.73358" lon="-73.999585"/>
   <trkpt lat="40.733663" lon="-73.999523"/>
   <trkpt lat="40.733663" lon="-73.999523"/>
   <trkpt lat="40.733596" lon="-73.999493"/>
   <trkpt lat="40.733585" lon="-73.999484"/>
   <trkpt lat="40.733571" lon="-73.999465"/>
   <trkpt lat="40.733559" lon="-73.999443"/>
   <trkpt lat="40.733431" lon="-73.999148"/>
   <trkpt lat="40.733173" lon="-73.998535"/>
   <trkpt lat="40.733173" lon="-73.998535"/>
   <trkpt lat="40.733431" lon="-73.999148"/>
   <trkpt lat="40.733559" lon="-73.999443"/>
   <trkpt lat="40.733571" lon="-73.999465"/>
   <trkpt lat="40.733585" lon="-73.999484"/>
   <trkpt lat="40.733596" lon="-73.999493"/>
   <trkpt lat="40.733663" lon="-73.999523"/>
   <trkpt lat="40.733663" lon="-73.999523"/>
   <trkpt lat="40.733816" lon="-73.99959"/>
   <trkpt lat="40.733966" lon="-73.999637"/>
   <trkpt lat="40.734016" lon="-73.999653"/>
   <trkpt lat="40.734078" lon="-73.999673"/>
   <trkpt lat="40.734078" lon="-73.999673"/>
   <trkpt lat="40.734065" lon="-73.999777"/>
   <trkpt lat="40.733989" lon="-74.000311"/>
   <trkpt lat="40.73398" lon="-74.000373"/>
   <trkpt lat="40.733974" lon="-74.000408"/>
   <trkpt lat="40.733865" lon="-74.00115"/>
   <trkpt lat="40.733847" lon="-74.001206"/>
   <trkpt lat="40.733834" lon="-74.001269"/>
   <trkpt lat="40.733801" lon="-74.001495"/>
   <trkpt lat="40.733753" lon="-74.001824"/>
   <trkpt lat="40.733642" lon="-74.002586"/>
   <trkpt lat="40.733636" lon="-74.002629"/>
   <trkpt lat="40.733609" lon="-74.002811"/>
   <trkpt lat="40.733609" lon="-74.002811"/>
   <trkpt lat="40.733506" lon="-74.00287"/>
   <trkpt lat="40.733299" lon="-74.002984"/>
   <trkpt lat="40.733227" lon="-74.003029"/>
   <trkpt lat="40.73315" lon="-74.003073"/>
   <trkpt lat="40.732868" lon="-74.003233"/>
   <trkpt lat="40.732868" lon="-74.003233"/>
   <trkpt lat="40.732868" lon="-74.003233"/>
   <trkpt lat="40.732815" lon="-74.003263"/>
   <trkpt lat="40.732703" lon="-74.003327"/>
   <trkpt lat="40.732507" lon="-74.003439"/>
   <trkpt lat="40.732319" lon="-74.003546"/>
   <trkpt lat="40.732286" lon="-74.003564"/>
   <trkpt lat="40.732254" lon="-74.003583"/>
   <trkpt lat="40.732179" lon="-74.003539"/>
   <trkpt lat="40.732121" lon="-74.003506"/>
   <trkpt lat="40.731747" lon="-74.00329"/>
   <trkpt lat="40.731705" lon="-74.003265"/>
   <trkpt lat="40.731509" lon="-74.003153"/>
   <trkpt lat="40.731468" lon="-74.003129"/>
   <trkpt lat="40.73118" lon="-74.002963"/>
   <trkpt lat="40.731138" lon="-74.002938"/>
   <trkpt lat="40.731102" lon="-74.002919"/>
   <trkpt lat="40.730922" lon="-74.002818"/>
   <trkpt lat="40.730883" lon="-74.002795"/>
   <trkpt lat="40.730399" lon="-74.002514"/>
   <trkpt lat="40.730337" lon="-74.002476"/>
   <trkpt lat="40.730268" lon="-74.002437"/>
   <trkpt lat="40.729962" lon="-74.002265"/>
   <trkpt lat="40.729897" lon="-74.002229"/>
   <trkpt lat="40.729856" lon="-74.002206"/>
   <trkpt lat="40.729753" lon="-74.002162"/>
   <trkpt lat="40.729695" lon="-74.002193"/>
   <trkpt lat="40.729605" lon="-74.002241"/>
   <trkpt lat="40.729563" lon="-74.002263"/>
   <trkpt lat="40.728913" lon="-74.002583"/>
   <trkpt lat="40.728695" lon="-74.002691"/>
   <trkpt lat="40.728536" lon="-74.002768"/>
   <trkpt lat="40.72847" lon="-74.002802"/>
   <trkpt lat="40.728415" lon="-74.002672"/>
   <trkpt lat="40.728393" lon="-74.00269"/>
   <trkpt lat="40.728374" lon="-74.002706"/>
   <trkpt lat="40.728354" lon="-74.002722"/>
   <trkpt lat="40.728316" lon="-74.002752"/>
   <trkpt lat="40.728293" lon="-74.00276"/>
   <trkpt lat="40.728269" lon="-74.002768"/>
   <trkpt lat="40.728233" lon="-74.002766"/>
   <trkpt lat="40.728185" lon="-74.002764"/>
   <trkpt lat="40.728156" lon="-74.002762"/>
   <trkpt lat="40.72772" lon="-74.002983"/>
   <trkpt lat="40.727701" lon="-74.00299"/>
   <trkpt lat="40.72765" lon="-74.003009"/>
   <trkpt lat="40.727621" lon="-74.00302"/>
   <trkpt lat="40.727591" lon="-74.003031"/>
   <trkpt lat="40.727008" lon="-74.00326"/>
   <trkpt lat="40.726995" lon="-74.003266"/>
   <trkpt lat="40.726943" lon="-74.00329"/>
   <trkpt lat="40.726941" lon="-74.003278"/>
   <trkpt lat="40.726916" lon="-74.003201"/>
   <trkpt lat="40.72687" lon="-74.003107"/>
   <trkpt lat="40.72684" lon="-74.003045"/>
   <trkpt lat="40.726526" lon="-74.002413"/>
   <trkpt lat="40.726495" lon="-74.002351"/>
   <trkpt lat="40.726466" lon="-74.002293"/>
   <trkpt lat="40.726151" lon="-74.001658"/>
   <trkpt lat="40.72612" lon="-74.001596"/>
   <trkpt lat="40.726095" lon="-74.001546"/>
   <trkpt lat="40.725816" lon="-74.000983"/>
   <trkpt lat="40.725777" lon="-74.000906"/>
   <trkpt lat="40.72576064" lon="-74.00087292"/>
   <trkpt lat="40.72576064" lon="-74.00087292"/>
   <trkpt lat="40.725777" lon="-74.000906"/>
   <trkpt lat="40.725733" lon="-74.000817"/>
   <trkpt lat="40.725719" lon="-74.000789"/>
   <trkpt lat="40.72564" lon="-74.000626"/>
   <trkpt lat="40.725567" lon="-74.000478"/>
   <trkpt lat="40.725567" lon="-74.000478"/>
   <trkpt lat="40.725567" lon="-74.000478"/>
   <trkpt lat="40.72564" lon="-74.000626"/>
   <trkpt lat="40.725719" lon="-74.000789"/>
   <trkpt lat="40.725733" lon="-74.000817"/>
   <trkpt lat="40.725777" lon="-74.000906"/>
   <trkpt lat="40.725777" lon="-74.000906"/>
   <trkpt lat="40.725827" lon="-74.000864"/>
   <trkpt lat="40.726816" lon="-74.000028"/>
   <trkpt lat="40.726888" lon="-73.999967"/>
   <trkpt lat="40.727003" lon="-73.99987"/>
   <trkpt lat="40.727074" lon="-73.999808"/>
   <trkpt lat="40.728014" lon="-73.999001"/>
   <trkpt lat="40.72807" lon="-73.998954"/>
   <trkpt lat="40.72809" lon="-73.998937"/>
   <trkpt lat="40.728107" lon="-73.998922"/>
   <trkpt lat="40.728132" lon="-73.998901"/>
   <trkpt lat="40.728734" lon="-73.9984"/>
   <trkpt lat="40.729252" lon="-73.997939"/>
   <trkpt lat="40.729326" lon="-73.997872"/>
   <trkpt lat="40.729377" lon="-73.99783"/>
   <trkpt lat="40.729892" lon="-73.997401"/>
   <trkpt lat="40.729944" lon="-73.997358"/>
  </trkseg>
 </trk>
</gpx>
