<?xml version="1.0" ?>
<gpx xmlns="http://www.topografix.com/GPX/1/1">
 <trk>
  <name>5/11 Walk through Hell's Kitchen</name>
  <trkseg>
   <trkpt lat="40.764324" lon="-73.977196"/>
   <trkpt lat="40.764383" lon="-73.977336"/>
   <trkpt lat="40.764505" lon="-73.977626"/>
   <trkpt lat="40.765045" lon="-73.978905"/>
   <trkpt lat="40.765463" lon="-73.979898"/>
   <trkpt lat="40.765521" lon="-73.980036"/>
   <trkpt lat="40.765569" lon="-73.980147"/>
   <trkpt lat="40.765639" lon="-73.980315"/>
   <trkpt lat="40.765709" lon="-73.980479"/>
   <trkpt lat="40.765878" lon="-73.980877"/>
   <trkpt lat="40.766238" lon="-73.981728"/>
   <trkpt lat="40.766301" lon="-73.981894"/>
   <trkpt lat="40.766342" lon="-73.981993"/>
   <trkpt lat="40.76666" lon="-73.982741"/>
   <trkpt lat="40.766716" lon="-73.982873"/>
   <trkpt lat="40.766716" lon="-73.982873"/>
   <trkpt lat="40.766625" lon="-73.98294"/>
   <trkpt lat="40.766592" lon="-73.982964"/>
   <trkpt lat="40.766108" lon="-73.983321"/>
   <trkpt lat="40.766032" lon="-73.983377"/>
   <trkpt lat="40.765992" lon="-73.983407"/>
   <trkpt lat="40.765486" lon="-73.983786"/>
   <trkpt lat="40.76544" lon="-73.983821"/>
   <trkpt lat="40.765392" lon="-73.983856"/>
   <trkpt lat="40.765371" lon="-73.98387"/>
   <trkpt lat="40.765278" lon="-73.983932"/>
   <trkpt lat="40.764856" lon="-73.984229"/>
   <trkpt lat="40.764798" lon="-73.984269"/>
   <trkpt lat="40.764741" lon="-73.984311"/>
   <trkpt lat="40.764572" lon="-73.984436"/>
   <trkpt lat="40.764232" lon="-73.984687"/>
   <trkpt lat="40.76416" lon="-73.984741"/>
   <trkpt lat="40.764112" lon="-73.984776"/>
   <trkpt lat="40.764008" lon="-73.984852"/>
   <trkpt lat="40.763606" lon="-73.985156"/>
   <trkpt lat="40.763557" lon="-73.985194"/>
   <trkpt lat="40.763515" lon="-73.985223"/>
   <trkpt lat="40.763495" lon="-73.985238"/>
   <trkpt lat="40.763172" lon="-73.985466"/>
   <trkpt lat="40.763086" lon="-73.985527"/>
   <trkpt lat="40.762978" lon="-73.985604"/>
   <trkpt lat="40.762916" lon="-73.985648"/>
   <trkpt lat="40.762865" lon="-73.985685"/>
   <trkpt lat="40.762769" lon="-73.985755"/>
   <trkpt lat="40.762355" lon="-73.986057"/>
   <trkpt lat="40.762294" lon="-73.986101"/>
   <trkpt lat="40.762232" lon="-73.986147"/>
   <trkpt lat="40.761723" lon="-73.986525"/>
   <trkpt lat="40.761668" lon="-73.986566"/>
   <trkpt lat="40.761612" lon="-73.986604"/>
   <trkpt lat="40.761301" lon="-73.986834"/>
   <trkpt lat="40.761105" lon="-73.986968"/>
   <trkpt lat="40.761036" lon="-73.987018"/>
   <trkpt lat="40.760981" lon="-73.987058"/>
   <trkpt lat="40.760473" lon="-73.987429"/>
   <trkpt lat="40.760409" lon="-73.987475"/>
   <trkpt lat="40.76036" lon="-73.987511"/>
   <trkpt lat="40.76011" lon="-73.987691"/>
   <trkpt lat="40.759851" lon="-73.987881"/>
   <trkpt lat="40.759787" lon="-73.987929"/>
   <trkpt lat="40.759731" lon="-73.987969"/>
   <trkpt lat="40.759508" lon="-73.988132"/>
   <trkpt lat="40.759223" lon="-73.98834"/>
   <trkpt lat="40.759159" lon="-73.988386"/>
   <trkpt lat="40.759103" lon="-73.988427"/>
   <trkpt lat="40.75882" lon="-73.988633"/>
   <trkpt lat="40.758592" lon="-73.9888"/>
   <trkpt lat="40.758532" lon="-73.988843"/>
   <trkpt lat="40.758482" lon="-73.98888"/>
   <trkpt lat="40.757977" lon="-73.989249"/>
   <trkpt lat="40.757912" lon="-73.989296"/>
   <trkpt lat="40.757852" lon="-73.98934"/>
   <trkpt lat="40.757721" lon="-73.989435"/>
   <trkpt lat="40.757331" lon="-73.98972"/>
   <trkpt lat="40.757234" lon="-73.989791"/>
   <trkpt lat="40.757234" lon="-73.989791"/>
   <trkpt lat="40.75347448" lon="-73.99254208"/>
   <trkpt lat="40.75347448" lon="-73.99254208"/>
   <trkpt lat="40.75106694" lon="-73.98681086"/>
   <trkpt lat="40.75106694" lon="-73.98681086"/>
   <trkpt lat="40.7373602" lon="-73.99684541"/>
  </trkseg>
 </trk>
</gpx>
